CCSDS_OMM_VERS = 2.0
CREATION_DATE  = 
ORIGINATOR     = 

OBJECT_NAME    = ISS (ZARYA)
OBJECT_ID      = 1998-067A
CENTER_NAME    = EARTH
REF_FRAME      = TEME
TIME_SYSTEM    = UTC
MEAN_ELEMENT_THEORY = SGP/SGP4

EPOCH          = 2026-03-23T04:41:36.951648
MEAN_MOTION    = 15.48483260
ECCENTRICITY   = .00061926
INCLINATION    = 51.6344
RA_OF_ASC_NODE = 5.5946
ARG_OF_PERICENTER = 222.9473
MEAN_ANOMALY   = 137.1033

EPHEMERIS_TYPE = 0
CLASSIFICATION_TYPE = U
NORAD_CAT_ID   = 25544
ELEMENT_SET_NO = 999
REV_AT_EPOCH   = 55842
BSTAR          = .32963634E-3
MEAN_MOTION_DOT = .17435E-3
MEAN_MOTION_DDOT = 0

CCSDS_OMM_VERS = 2.0
CREATION_DATE  = 
ORIGINATOR     = 

OBJECT_NAME    = POISK
OBJECT_ID      = 2009-060A
CENTER_NAME    = EARTH
REF_FRAME      = TEME
TIME_SYSTEM    = UTC
MEAN_ELEMENT_THEORY = SGP/SGP4

EPOCH          = 2026-03-23T04:41:36.951648
MEAN_MOTION    = 15.48483260
ECCENTRICITY   = .00061926
INCLINATION    = 51.6344
RA_OF_ASC_NODE = 5.5946
ARG_OF_PERICENTER = 222.9473
MEAN_ANOMALY   = 137.1033

EPHEMERIS_TYPE = 0
CLASSIFICATION_TYPE = U
NORAD_CAT_ID   = 36086
ELEMENT_SET_NO = 999
REV_AT_EPOCH   = 55743
BSTAR          = .32963634E-3
MEAN_MOTION_DOT = .17435E-3
MEAN_MOTION_DDOT = 0

CCSDS_OMM_VERS = 2.0
CREATION_DATE  = 
ORIGINATOR     = 

OBJECT_NAME    = CSS (TIANHE)
OBJECT_ID      = 2021-035A
CENTER_NAME    = EARTH
REF_FRAME      = TEME
TIME_SYSTEM    = UTC
MEAN_ELEMENT_THEORY = SGP/SGP4

EPOCH          = 2026-03-23T03:37:05.918880
MEAN_MOTION    = 15.61367292
ECCENTRICITY   = .00050101
INCLINATION    = 41.4659
RA_OF_ASC_NODE = 126.2122
ARG_OF_PERICENTER = 0.2981
MEAN_ANOMALY   = 359.7860

EPHEMERIS_TYPE = 0
CLASSIFICATION_TYPE = U
NORAD_CAT_ID   = 48274
ELEMENT_SET_NO = 999
REV_AT_EPOCH   = 27971
BSTAR          = .33220179E-3
MEAN_MOTION_DOT = .28902E-3
MEAN_MOTION_DDOT = 0

CCSDS_OMM_VERS = 2.0
CREATION_DATE  = 
ORIGINATOR     = 

OBJECT_NAME    = ISS (NAUKA)
OBJECT_ID      = 2021-066A
CENTER_NAME    = EARTH
REF_FRAME      = TEME
TIME_SYSTEM    = UTC
MEAN_ELEMENT_THEORY = SGP/SGP4

EPOCH          = 2026-03-23T04:41:36.951648
MEAN_MOTION    = 15.48483260
ECCENTRICITY   = .00061926
INCLINATION    = 51.6344
RA_OF_ASC_NODE = 5.5946
ARG_OF_PERICENTER = 222.9473
MEAN_ANOMALY   = 137.1033

EPHEMERIS_TYPE = 0
CLASSIFICATION_TYPE = U
NORAD_CAT_ID   = 49044
ELEMENT_SET_NO = 999
REV_AT_EPOCH   = 55747
BSTAR          = .32963634E-3
MEAN_MOTION_DOT = .17435E-3
MEAN_MOTION_DDOT = 0

CCSDS_OMM_VERS = 2.0
CREATION_DATE  = 
ORIGINATOR     = 

OBJECT_NAME    = FREGAT DEB
OBJECT_ID      = 2011-037PF
CENTER_NAME    = EARTH
REF_FRAME      = TEME
TIME_SYSTEM    = UTC
MEAN_ELEMENT_THEORY = SGP/SGP4

EPOCH          = 2026-03-22T15:46:16.206528
MEAN_MOTION    = 12.40598329
ECCENTRICITY   = .09634771
INCLINATION    = 51.6477
RA_OF_ASC_NODE = 261.8223
ARG_OF_PERICENTER = 89.1012
MEAN_ANOMALY   = 281.9939

EPHEMERIS_TYPE = 0
CLASSIFICATION_TYPE = U
NORAD_CAT_ID   = 49271
ELEMENT_SET_NO = 999
REV_AT_EPOCH   = 21430
BSTAR          = .24515082E-1
MEAN_MOTION_DOT = .17384E-3
MEAN_MOTION_DDOT = 0

CCSDS_OMM_VERS = 2.0
CREATION_DATE  = 
ORIGINATOR     = 

OBJECT_NAME    = CSS (WENTIAN)
OBJECT_ID      = 2022-085A
CENTER_NAME    = EARTH
REF_FRAME      = TEME
TIME_SYSTEM    = UTC
MEAN_ELEMENT_THEORY = SGP/SGP4

EPOCH          = 2026-03-23T03:37:05.918880
MEAN_MOTION    = 15.61367292
ECCENTRICITY   = .00050101
INCLINATION    = 41.4659
RA_OF_ASC_NODE = 126.2122
ARG_OF_PERICENTER = 0.2981
MEAN_ANOMALY   = 359.7860

EPHEMERIS_TYPE = 0
CLASSIFICATION_TYPE = U
NORAD_CAT_ID   = 53239
ELEMENT_SET_NO = 999
REV_AT_EPOCH   = 27910
BSTAR          = .33220179E-3
MEAN_MOTION_DOT = .28902E-3
MEAN_MOTION_DDOT = 0

CCSDS_OMM_VERS = 2.0
CREATION_DATE  = 
ORIGINATOR     = 

OBJECT_NAME    = CSS (MENGTIAN)
OBJECT_ID      = 2022-143A
CENTER_NAME    = EARTH
REF_FRAME      = TEME
TIME_SYSTEM    = UTC
MEAN_ELEMENT_THEORY = SGP/SGP4

EPOCH          = 2026-03-23T03:37:05.918880
MEAN_MOTION    = 15.61367292
ECCENTRICITY   = .00050101
INCLINATION    = 41.4659
RA_OF_ASC_NODE = 126.2122
ARG_OF_PERICENTER = 0.2981
MEAN_ANOMALY   = 359.7860

EPHEMERIS_TYPE = 0
CLASSIFICATION_TYPE = U
NORAD_CAT_ID   = 54216
ELEMENT_SET_NO = 999
REV_AT_EPOCH   = 27910
BSTAR          = .33220179E-3
MEAN_MOTION_DOT = .28902E-3
MEAN_MOTION_DDOT = 0

CCSDS_OMM_VERS = 2.0
CREATION_DATE  = 
ORIGINATOR     = 

OBJECT_NAME    = TIANZHOU-9
OBJECT_ID      = 2025-149A
CENTER_NAME    = EARTH
REF_FRAME      = TEME
TIME_SYSTEM    = UTC
MEAN_ELEMENT_THEORY = SGP/SGP4

EPOCH          = 2026-03-23T03:37:05.918880
MEAN_MOTION    = 15.61367292
ECCENTRICITY   = .00050101
INCLINATION    = 41.4659
RA_OF_ASC_NODE = 126.2122
ARG_OF_PERICENTER = 0.2981
MEAN_ANOMALY   = 359.7860

EPHEMERIS_TYPE = 0
CLASSIFICATION_TYPE = U
NORAD_CAT_ID   = 64786
ELEMENT_SET_NO = 999
REV_AT_EPOCH   = 27910
BSTAR          = .33220179E-3
MEAN_MOTION_DOT = .28902E-3
MEAN_MOTION_DDOT = 0

CCSDS_OMM_VERS = 2.0
CREATION_DATE  = 
ORIGINATOR     = 

OBJECT_NAME    = PROGRESS-MS 32
OBJECT_ID      = 2025-204A
CENTER_NAME    = EARTH
REF_FRAME      = TEME
TIME_SYSTEM    = UTC
MEAN_ELEMENT_THEORY = SGP/SGP4

EPOCH          = 2026-03-23T04:41:36.951648
MEAN_MOTION    = 15.48483260
ECCENTRICITY   = .00061926
INCLINATION    = 51.6344
RA_OF_ASC_NODE = 5.5946
ARG_OF_PERICENTER = 222.9473
MEAN_ANOMALY   = 137.1033

EPHEMERIS_TYPE = 0
CLASSIFICATION_TYPE = U
NORAD_CAT_ID   = 65586
ELEMENT_SET_NO = 999
REV_AT_EPOCH   = 55450
BSTAR          = .32963634E-3
MEAN_MOTION_DOT = .17435E-3
MEAN_MOTION_DDOT = 0

CCSDS_OMM_VERS = 2.0
CREATION_DATE  = 
ORIGINATOR     = 

OBJECT_NAME    = YOTSUBA-KULOVER
OBJECT_ID      = 1998-067XN
CENTER_NAME    = EARTH
REF_FRAME      = TEME
TIME_SYSTEM    = UTC
MEAN_ELEMENT_THEORY = SGP/SGP4

EPOCH          = 2026-03-23T03:28:54.474816
MEAN_MOTION    = 15.87494566
ECCENTRICITY   = .00051851
INCLINATION    = 51.6200
RA_OF_ASC_NODE = 347.1637
ARG_OF_PERICENTER = 167.6990
MEAN_ANOMALY   = 192.4142

EPHEMERIS_TYPE = 0
CLASSIFICATION_TYPE = U
NORAD_CAT_ID   = 65941
ELEMENT_SET_NO = 999
REV_AT_EPOCH   = 2563
BSTAR          = .14014036E-2
MEAN_MOTION_DOT = .397077E-2
MEAN_MOTION_DDOT = 0

CCSDS_OMM_VERS = 2.0
CREATION_DATE  = 
ORIGINATOR     = 

OBJECT_NAME    = BOTAN
OBJECT_ID      = 1998-067XQ
CENTER_NAME    = EARTH
REF_FRAME      = TEME
TIME_SYSTEM    = UTC
MEAN_ELEMENT_THEORY = SGP/SGP4

EPOCH          = 2026-03-23T03:41:09.576384
MEAN_MOTION    = 15.86838816
ECCENTRICITY   = .00057699
INCLINATION    = 51.6227
RA_OF_ASC_NODE = 347.2432
ARG_OF_PERICENTER = 167.5490
MEAN_ANOMALY   = 192.5658

EPHEMERIS_TYPE = 0
CLASSIFICATION_TYPE = U
NORAD_CAT_ID   = 65943
ELEMENT_SET_NO = 999
REV_AT_EPOCH   = 2563
BSTAR          = .12895036E-2
MEAN_MOTION_DOT = .351978E-2
MEAN_MOTION_DDOT = 0

CCSDS_OMM_VERS = 2.0
CREATION_DATE  = 
ORIGINATOR     = 

OBJECT_NAME    = HRC MONOBLOCK CAMERA
OBJECT_ID      = 1998-067XR
CENTER_NAME    = EARTH
REF_FRAME      = TEME
TIME_SYSTEM    = UTC
MEAN_ELEMENT_THEORY = SGP/SGP4

EPOCH          = 2026-03-23T03:03:47.706336
MEAN_MOTION    = 15.63632380
ECCENTRICITY   = .00038999
INCLINATION    = 51.6288
RA_OF_ASC_NODE = 357.6395
ARG_OF_PERICENTER = 154.3365
MEAN_ANOMALY   = 205.7824

EPHEMERIS_TYPE = 0
CLASSIFICATION_TYPE = U
NORAD_CAT_ID   = 66052
ELEMENT_SET_NO = 999
REV_AT_EPOCH   = 2449
BSTAR          = .63021366E-3
MEAN_MOTION_DOT = .59724E-3
MEAN_MOTION_DDOT = 0

