ISS (ZARYA)             
1 25544U 98067A   26082.19556657  .00017435  00000+0  32964-3 0  9998
2 25544  51.6344   5.5946 0006192 222.9473 137.1033 15.48483260558424
POISK                   
1 36086U 09060A   26082.19556657  .00017435  00000+0  32964-3 0  9996
2 36086  51.6344   5.5946 0006192 222.9473 137.1033 15.48483260557437
CSS (TIANHE)            
1 48274U 21035A   26082.15076295  .00028902  00000+0  33220-3 0  9992
2 48274  41.4659 126.2122 0005010   0.2981 359.7860 15.61367292279714
ISS (NAUKA)             
1 49044U 21066A   26082.19556657  .00017435  00000+0  32964-3 0  9994
2 49044  51.6344   5.5946 0006192 222.9473 137.1033 15.48483260557479
FREGAT DEB              
1 49271U 11037PF  26081.65713202  .00017384  00000+0  24515-1 0  9998
2 49271  51.6477 261.8223 0963477  89.1012 281.9939 12.40598329214300
CSS (WENTIAN)           
1 53239U 22085A   26082.15076295  .00028902  00000+0  33220-3 0  9995
2 53239  41.4659 126.2122 0005010   0.2981 359.7860 15.61367292279104
CSS (MENGTIAN)          
1 54216U 22143A   26082.15076295  .00028902  00000+0  33220-3 0  9996
2 54216  41.4659 126.2122 0005010   0.2981 359.7860 15.61367292279100
TIANZHOU-9              
1 64786U 25149A   26082.15076295  .00028902  00000+0  33220-3 0  9998
2 64786  41.4659 126.2122 0005010   0.2981 359.7860 15.61367292279103
PROGRESS-MS 32          
1 65586U 25204A   26082.19556657  .00017435  00000+0  32964-3 0  9991
2 65586  51.6344   5.5946 0006192 222.9473 137.1033 15.48483260554509
YOTSUBA-KULOVER         
1 65941U 98067XN  26082.14507494  .00397077  00000+0  14014-2 0  9991
2 65941  51.6200 347.1637 0005185 167.6990 192.4142 15.87494566 25633
BOTAN                   
1 65943U 98067XQ  26082.15358306  .00351978  00000+0  12895-2 0  9995
2 65943  51.6227 347.2432 0005769 167.5490 192.5658 15.86838816 25632
HRC MONOBLOCK CAMERA    
1 66052U 98067XR  26082.12763549  .00059724  00000+0  63021-3 0  9995
2 66052  51.6288 357.6395 0003899 154.3365 205.7824 15.63632380 24499
